{
    "links": {
        "self": "http://www.neowsapp.com/rest/v1/neo/54073368?api_key=iIulBulltgU6a56xZRHN4H3l9WmuAYTsLGpBGhQ2"
    },
    "id": "54073368",
    "neo_reference_id": "54073368",
    "name": "(2020 UV)",
    "designation": "2020 UV",
    "nasa_jpl_url": "http://ssd.jpl.nasa.gov/sbdb.cgi?sstr=54073368",
    "absolute_magnitude_h": 27.393,
    "estimated_diameter": {
        "kilometers": {
            "estimated_diameter_min": 0.0088298836,
            "estimated_diameter_max": 0.0197442199
        },
        "meters": {
            "estimated_diameter_min": 8.829883561,
            "estimated_diameter_max": 19.7442198758
        },
        "miles": {
            "estimated_diameter_min": 0.0054866336,
            "estimated_diameter_max": 0.0122684856
        },
        "feet": {
            "estimated_diameter_min": 28.9694351822,
            "estimated_diameter_max": 64.7776263373
        }
    },
    "is_potentially_hazardous_asteroid": false,
    "close_approach_data": [
        {
            "close_approach_date": "2015-09-15",
            "close_approach_date_full": "2015-Sep-15 05:31",
            "epoch_date_close_approach": 1442295060000,
            "relative_velocity": {
                "kilometers_per_second": "21.3968866647",
                "kilometers_per_hour": "77028.791992934",
                "miles_per_hour": "47862.6957802762"
            },
            "miss_distance": {
                "astronomical": "0.4312562685",
                "lunar": "167.7586884465",
                "kilometers": "64515019.191748095",
                "miles": "40087774.030969911"
            },
            "orbiting_body": "Earth"
        },
        {
            "close_approach_date": "2020-10-22",
            "close_approach_date_full": "2020-Oct-22 11:36",
            "epoch_date_close_approach": 1603366560000,
            "relative_velocity": {
                "kilometers_per_second": "9.2589844091",
                "kilometers_per_hour": "33332.3438727351",
                "miles_per_hour": "20711.4222247003"
            },
            "miss_distance": {
                "astronomical": "0.005062365",
                "lunar": "1.969259985",
                "kilometers": "757319.02116255",
                "miles": "470576.21884119"
            },
            "orbiting_body": "Moon"
        },
        {
            "close_approach_date": "2020-10-22",
            "close_approach_date_full": "2020-Oct-22 16:21",
            "epoch_date_close_approach": 1603383660000,
            "relative_velocity": {
                "kilometers_per_second": "8.3412356148",
                "kilometers_per_hour": "30028.4482131015",
                "miles_per_hour": "18658.5099466352"
            },
            "miss_distance": {
                "astronomical": "0.0032330749",
                "lunar": "1.2576661361",
                "kilometers": "483661.118590463",
                "miles": "300533.0831878694"
            },
            "orbiting_body": "Earth"
        },
        {
            "close_approach_date": "2025-09-30",
            "close_approach_date_full": "2025-Sep-30 07:37",
            "epoch_date_close_approach": 1759217820000,
            "relative_velocity": {
                "kilometers_per_second": "14.0812212558",
                "kilometers_per_hour": "50692.3965210402",
                "miles_per_hour": "31498.2838271986"
            },
            "miss_distance": {
                "astronomical": "0.1866698034",
                "lunar": "72.6145535226",
                "kilometers": "27925404.981958758",
                "miles": "17352042.0309085404"
            },
            "orbiting_body": "Earth"
        },
        {
            "close_approach_date": "2030-09-16",
            "close_approach_date_full": "2030-Sep-16 19:20",
            "epoch_date_close_approach": 1915816800000,
            "relative_velocity": {
                "kilometers_per_second": "20.6538409981",
                "kilometers_per_hour": "74353.8275930236",
                "miles_per_hour": "46200.5769285651"
            },
            "miss_distance": {
                "astronomical": "0.4045199433",
                "lunar": "157.3582579437",
                "kilometers": "60515321.890200771",
                "miles": "37602477.3725257998"
            },
            "orbiting_body": "Earth"
        }
    ],
    "orbital_data": {
        "orbit_id": "6",
        "orbit_determination_date": "2020-10-25 07:37:00",
        "first_observation_date": "2020-10-17",
        "last_observation_date": "2020-10-22",
        "data_arc_in_days": 5,
        "observations_used": 43,
        "orbit_uncertainty": "7",
        "minimum_orbit_intersection": ".00250091",
        "jupiter_tisserand_invariant": "3.840",
        "epoch_osculation": "2459000.5",
        "eccentricity": ".4897977139696523",
        "semi_major_axis": "1.859851544566862",
        "inclination": "1.902336143160444",
        "ascending_node_longitude": "206.0372166890364",
        "orbital_period": "926.4369037938072",
        "perihelion_distance": ".9489005097150858",
        "perihelion_argument": "214.9723515246788",
        "aphelion_distance": "2.770802579418637",
        "perihelion_time": "2459170.184077871062",
        "mean_anomaly": "294.0632181388383",
        "mean_motion": ".3885855566912126",
        "equinox": "J2000",
        "orbit_class": {
            "orbit_class_type": "APO",
            "orbit_class_description": "Near-Earth asteroid orbits which cross the Earth’s orbit similar to that of 1862 Apollo",
            "orbit_class_range": "a (semi-major axis) > 1.0 AU; q (perihelion) < 1.017 AU"
        }
    },
    "is_sentry_object": false
}